{
    "links": {
        "self": "http://www.neowsapp.com/rest/v1/neo/3715908?api_key=iIulBulltgU6a56xZRHN4H3l9WmuAYTsLGpBGhQ2"
    },
    "id": "3715908",
    "neo_reference_id": "3715908",
    "name": "(2015 GB14)",
    "designation": "2015 GB14",
    "nasa_jpl_url": "http://ssd.jpl.nasa.gov/sbdb.cgi?sstr=3715908",
    "absolute_magnitude_h": 25.4,
    "estimated_diameter": {
        "kilometers": {
            "estimated_diameter_min": 0.022108281,
            "estimated_diameter_max": 0.0494356193
        },
        "meters": {
            "estimated_diameter_min": 22.1082810359,
            "estimated_diameter_max": 49.435619262
        },
        "miles": {
            "estimated_diameter_min": 0.0137374447,
            "estimated_diameter_max": 0.0307178602
        },
        "feet": {
            "estimated_diameter_min": 72.5337327539,
            "estimated_diameter_max": 162.1903570994
        }
    },
    "is_potentially_hazardous_asteroid": false,
    "close_approach_data": [
        {
            "close_approach_date": "1922-04-02",
            "close_approach_date_full": "1922-Apr-02 12:36",
            "epoch_date_close_approach": -1506857040000,
            "relative_velocity": {
                "kilometers_per_second": "23.0683845145",
                "kilometers_per_hour": "83046.1842521338",
                "miles_per_hour": "51601.6693204439"
            },
            "miss_distance": {
                "astronomical": "0.3867211339",
                "lunar": "150.4345210871",
                "kilometers": "57852657.915424793",
                "miles": "35947974.6989084234"
            },
            "orbiting_body": "Earth"
        },
        {
            "close_approach_date": "1959-09-02",
            "close_approach_date_full": "1959-Sep-02 15:08",
            "epoch_date_close_approach": -326019120000,
            "relative_velocity": {
                "kilometers_per_second": "21.991136548",
                "kilometers_per_hour": "79168.0915726726",
                "miles_per_hour": "49191.973344142"
            },
            "miss_distance": {
                "astronomical": "0.3540948805",
                "lunar": "137.7429085145",
                "kilometers": "52971839.900704535",
                "miles": "32915175.017351183"
            },
            "orbiting_body": "Earth"
        },
        {
            "close_approach_date": "2015-04-28",
            "close_approach_date_full": "2015-Apr-28 15:24",
            "epoch_date_close_approach": 1430234640000,
            "relative_velocity": {
                "kilometers_per_second": "12.2007671082",
                "kilometers_per_hour": "43922.7615896604",
                "miles_per_hour": "27291.8959444198"
            },
            "miss_distance": {
                "astronomical": "0.0229845636",
                "lunar": "8.9409952404",
                "kilometers": "3438441.757439532",
                "miles": "2136548.6349962616"
            },
            "orbiting_body": "Earth"
        }
    ],
    "orbital_data": {
        "orbit_id": "13",
        "orbit_determination_date": "2017-04-06 08:34:25",
        "first_observation_date": "2015-04-15",
        "last_observation_date": "2015-04-29",
        "data_arc_in_days": 14,
        "observations_used": 75,
        "orbit_uncertainty": "8",
        "minimum_orbit_intersection": ".00116799",
        "jupiter_tisserand_invariant": "3.736",
        "epoch_osculation": "2457132.5",
        "eccentricity": ".5321848569625284",
        "semi_major_axis": "1.921395888080897",
        "inclination": "2.446718725240242",
        "ascending_node_longitude": "39.09875528148609",
        "orbital_period": "972.8003368023267",
        "perihelion_distance": ".8988580922141747",
        "perihelion_argument": "227.9448672138525",
        "aphelion_distance": "2.94393368394762",
        "perihelion_time": "2457177.632204738086",
        "mean_anomaly": "343.2981208054285",
        "mean_motion": ".3700656613497371",
        "equinox": "J2000",
        "orbit_class": {
            "orbit_class_type": "APO",
            "orbit_class_description": "Near-Earth asteroid orbits which cross the Earth’s orbit similar to that of 1862 Apollo",
            "orbit_class_range": "a (semi-major axis) > 1.0 AU; q (perihelion) < 1.017 AU"
        }
    },
    "is_sentry_object": false
}